NORAD_CAT_ID,OBJECT_NAME,OBJECT_TYPE,EPOCH,MEAN_MOTION,ECCENTRICITY,INCLINATION,RA_OF_ASC_NODE,ARG_OF_PERICENTER,MEAN_ANOMALY,BSTAR,MEAN_MOTION_DOT,MEAN_MOTION_DDOT,TLE_LINE0,TLE_LINE1,TLE_LINE2,SEMIMAJOR_AXIS,PERIOD,APOGEE,PERIGEE,DECAYED
51755.0,STARLINK-3460,PAYLOAD,2022-12-17 21:05:28,15.088324599999998,0.0002765,53.215,196.5268,29.0798,331.0348,9.2391e-05,1.182e-05,0.0,0 STARLINK-3460,1 51755U 22016AT  22351.87880768  .00001182  00000-0  92391-4 0  9999,2 51755  53.2150 196.5268 0002765  29.0798 331.0348 15.08832460 45898,6917.903,95.438,541.681,537.856,0.0
51755.0,STARLINK-3460,PAYLOAD,2022-12-18 12:59:20,15.088393599999998,0.0002781,53.215,193.5527,30.0034,330.1117,8.648899999999999e-05,1.088e-05,0.0,0 STARLINK-3460,1 51755U 22016AT  22352.54120554  .00001088  00000-0  86489-4 0  9990,2 51755  53.2150 193.5527 0002781  30.0034 330.1117 15.08839360 47102,6917.882,95.438,541.6709999999998,537.823,0.0
51755.0,STARLINK-3460,PAYLOAD,2022-12-18 19:20:53,15.08828812,0.0002782,53.2153,192.3631,29.3291,330.7856,5.906e-05,6.51e-06,0.0,0 STARLINK-3460,1 51755U 22016AT  22352.80617531  .00000651  00000-0  59060-4 0  9995,2 51755  53.2153 192.3631 0002782  29.3291 330.7856 15.08828812 46032,6917.915,95.438,541.7040000000002,537.855,0.0
51755.0,STARLINK-3460,PAYLOAD,2022-12-19 06:28:35,15.08828199,0.0002826,53.2156,190.2816,30.1659,329.9495,3.1978000000000005e-05,2.2e-06,0.0,0 STARLINK-3460,1 51755U 22016AT  22353.26986060  .00000220  00000-0  31978-4 0  9992,2 51755  53.2156 190.2816 0002826  30.1659 329.9495 15.08828199 47212,6917.916,95.438,541.736,537.826,0.0
51755.0,STARLINK-3460,PAYLOAD,2022-12-19 17:36:17,15.08834153,0.0002846,53.2156,188.2,31.267,328.8491,4.702600000000002e-05,4.6e-06,0.0,0 STARLINK-3460,1 51755U 22016AT  22353.73353849  .00000460  00000-0  47026-4 0  9994,2 51755  53.2156 188.2000 0002846  31.2670 328.8491 15.08834153 46176,6917.898,95.438,541.732,537.794,0.0
51755.0,STARLINK-3460,PAYLOAD,2022-12-19 20:47:03,15.08836399,0.0002853999999999,53.2158,187.6049,31.0541,329.0619999999999,2.7883e-05,1.55e-06,0.0,0 STARLINK-3460,1 51755U 22016AT  22353.86601806  .00000155  00000-0  27883-4 0  9997,2 51755  53.2158 187.6049 0002854  31.0541 329.0620 15.08836399 47305,6917.891,95.438,541.731,537.7819999999998,0.0
51755.0,STARLINK-3460,PAYLOAD,2022-12-20 07:54:45,15.08841281,0.0002842,53.2153,185.5235,31.0019,329.1140000000001,3.7381e-05,3.06e-06,0.0,0 STARLINK-3460,1 51755U 22016AT  22354.32969558  .00000306  00000-0  37381-4 0  9992,2 51755  53.2153 185.5235 0002842  31.0019 329.1140 15.08841281 46269,6917.876,95.437,541.7080000000002,537.775,0.0
51755.0,STARLINK-3460,PAYLOAD,2022-12-21 07:45:32,15.08843382,0.0002925,53.2151,181.0626,33.0217,327.0958,0.00016203,2.291e-05,0.0,0 STARLINK-3460,1 51755U 22016AT  22355.32329157  .00002291  00000-0  16203-3 0  9992,2 51755  53.2151 181.0626 0002925  33.0217 327.0958 15.08843382 47524,6917.87,95.437,541.759,537.712,0.0
51755.0,STARLINK-3460,PAYLOAD,2022-12-21 22:04:00,15.08839687,0.0002886,53.215,178.3863,33.2966,326.8207,5.4976e-05,5.86e-06,0.0,0 STARLINK-3460,1 51755U 22016AT  22355.91945578  .00000586  00000-0  54976-4 0  9993,2 51755  53.2150 178.3863 0002886  33.2966 326.8207 15.08839687 47611,6917.880999999999,95.438,541.743,537.75,0.0
51755.0,STARLINK-3460,PAYLOAD,2022-12-22 12:22:29,15.08839654,0.0002898,53.215,175.7097,35.9191,324.1995,2.204e-05,6.2e-07,0.0,0 STARLINK-3460,1 51755U 22016AT  22356.51561672  .00000062  00000-0  22040-4 0  9995,2 51755  53.2150 175.7097 0002898  35.9191 324.1995 15.08839654 46598,6917.880999999999,95.438,541.751,537.742,0.0
51755.0,STARLINK-3460,PAYLOAD,2022-12-22 18:44:01,15.08841044,0.0002963,53.2149,174.5204,35.2001,324.9186,3.396e-05,2.52e-06,0.0,0 STARLINK-3460,1 51755U 22016AT  22356.78057558  .00000252  00000-0  33960-4 0  9991,2 51755  53.2149 174.5204 0002963  35.2001 324.9186 15.08841044 46630,6917.877,95.437,541.7919999999998,537.692,0.0
51755.0,STARLINK-3460,PAYLOAD,2022-12-23 12:13:15,15.08846091,0.0003025,53.2151,171.2495,36.2677,323.8520000000001,3.756e-05,3.09e-06,0.0,0 STARLINK-3460,1 51755U 22016AT  22357.50921036  .00000309  00000-0  37560-4 0  9996,2 51755  53.2151 171.2495 0003025  36.2677 323.8520 15.08846091 47851,6917.861999999999,95.437,541.819,537.634,0.0
51755.0,STARLINK-3460,PAYLOAD,2022-12-23 18:34:48,15.08848446,0.0003043,53.2149,170.0598,36.7431,323.3769,5.4044e-05,5.72e-06,0.0,0 STARLINK-3460,1 51755U 22016AT  22357.77416752  .00000572  00000-0  54044-4 0  9997,2 51755  53.2149 170.0598 0003043  36.7431 323.3769 15.08848446 46789,6917.855,95.437,541.825,537.614,0.0
51755.0,STARLINK-3460,PAYLOAD,2022-12-24 12:04:02,15.08842529,0.0003053,53.2151,166.7891,38.2947,321.8262,0.00010546,1.39e-05,0.0,0 STARLINK-3460,1 51755U 22016AT  22358.50280854  .00001390  00000-0  10546-3 0  9998,2 51755  53.2151 166.7891 0003053  38.2947 321.8262 15.08842529 46899,6917.873000000001,95.437,541.85,537.626,0.0
51755.0,STARLINK-3460,PAYLOAD,2022-12-24 18:25:35,15.08836147,0.0003042,53.2147,165.5988,37.3562,322.7641,3.7942e-05,3.15e-06,0.0,0 STARLINK-3460,1 51755U 22016AT  22358.76777357  .00000315  00000-0  37942-4 0  9991,2 51755  53.2147 165.5988 0003042  37.3562 322.7641 15.08836147 48048,6917.892,95.438,541.862,537.653,0.0
51755.0,STARLINK-3460,PAYLOAD,2022-12-25 11:54:49,15.08841562,0.0003091,53.2148,162.3275,38.2228,321.8983,9.5199e-06,-1.37e-06,0.0,0 STARLINK-3460,1 51755U 22016AT  22359.49641012 -.00000137  00000-0  95199-5 0  9992,2 51755  53.2148 162.3275 0003091  38.2228 321.8983 15.08841562 47041,6917.876,95.437,541.879,537.602,0.0
51755.0,STARLINK-3460,PAYLOAD,2022-12-25 19:51:45,15.08844436,0.0003101,53.2148,160.8406,38.7456,321.3758,2.2647e-05,7.2e-07,0.0,0 STARLINK-3460,1 51755U 22016AT  22359.82760679  .00000072  00000-0  22647-4 0  9994,2 51755  53.2148 160.8406 0003101  38.7456 321.3758 15.08844436 48207,6917.8669999999975,95.437,541.877,537.587,0.0
51755.0,STARLINK-3460,PAYLOAD,2022-12-26 11:45:37,15.08826623,0.0002817,53.2145,157.8667,36.2354,323.8829,5.4277e-05,5.75e-06,0.0,0 STARLINK-3460,1 51755U 22016AT  22360.49001609  .00000575  00000-0  54277-4 0  9992,2 51755  53.2145 157.8667 0002817  36.2354 323.8829 15.08826623 47193,6917.920999999999,95.438,541.735,537.837,0.0
51755.0,STARLINK-3460,PAYLOAD,2022-12-26 19:42:32,15.08846593,0.0002972,53.2147,156.3795,37.7466,322.3735,-0.00013961,-2.51e-05,0.0,0 STARLINK-3460,1 51755U 22016AT  22360.82121024 -.00002510  00000-0 -13961-3 0  9990,2 51755  53.2147 156.3795 0002972  37.7466 322.3735 15.08846593 48350,6917.86,95.437,541.781,537.669,0.0
51755.0,STARLINK-3460,PAYLOAD,2022-12-27 10:01:00,15.08842991,0.0003083,53.2155,153.7038,40.5831,319.539,7.1856e-05,8.55e-06,0.0,0 STARLINK-3460,1 51755U 22016AT  22361.41736770  .00000855  00000-0  71856-4 0  9992,2 51755  53.2155 153.7038 0003083  40.5831 319.5390 15.08842991 47332,6917.871,95.437,541.869,537.6030000000002,0.0
51755.0,STARLINK-3460,PAYLOAD,2022-12-27 19:33:18,15.08850016,0.0003145,53.2151,151.9195,37.6915,322.4297,0.00012165,1.649e-05,0.0,0 STARLINK-3460,1 51755U 22016AT  22361.81480091  .00001649  00000-0  12165-3 0  9997,2 51755  53.2151 151.9195 0003145  37.6915 322.4297 15.08850016 47393,6917.85,95.437,541.89,537.539,0.0
51755.0,STARLINK-3460,PAYLOAD,2022-12-28 13:02:33,15.08837097,0.000302,53.2147,148.6473,41.8107,318.3116,0.00012481,1.698e-05,0.0,0 STARLINK-3460,1 51755U 22016AT  22362.54344697  .00001698  00000-0  12481-3 0  9994,2 51755  53.2147 148.6473 0003020  41.8107 318.3116 15.08837097 47503,6917.889,95.438,541.8430000000002,537.665,0.0
51755.0,STARLINK-3460,PAYLOAD,2022-12-29 03:21:02,15.088323999999998,0.0002793,53.2155,145.9697,44.3358,315.7857,-9.2204e-06,-4.35e-06,0.0,0 STARLINK-3460,1 51755U 22016AT  22363.13961459 -.00000435  00000-0 -92204-5 0  9994,2 51755  53.2155 145.9697 0002793  44.3358 315.7857 15.08832400 48701,6917.904,95.438,541.701,537.836,0.0
51755.0,STARLINK-3460,PAYLOAD,2022-12-29 09:42:35,15.08828268,0.0002534,53.2162,144.7792,40.7027,319.4154,3.0518e-05,1.97e-06,0.0,0 STARLINK-3460,1 51755U 22016AT  22363.40457560  .00000197  00000-0  30518-4 0  9999,2 51755  53.2162 144.7792 0002534  40.7027 319.4154 15.08828268 47637,6917.916,95.438,541.534,538.028,0.0
51755.0,STARLINK-3460,PAYLOAD,2022-12-29 19:14:54,15.08830155,0.0002998,53.2155,142.9971,44.2659,315.8572,-0.00013722,-2.471e-05,0.0,0 STARLINK-3460,1 51755U 22016AT  22363.80202331 -.00002471  00000-0 -13722-3 0  9993,2 51755  53.2155 142.9971 0002998  44.2659 315.8572 15.08830155 48804,6917.91,95.438,541.849,537.701,0.0
51755.0,STARLINK-3460,PAYLOAD,2022-12-30 09:33:22,15.0883265,0.0002992,53.2154,140.3214,45.1706,314.9529,0.00011521,1.545e-05,0.0,0 STARLINK-3460,1 51755U 22016AT  22364.39817547  .00001545  00000-0  11521-3 0  9993,2 51755  53.2154 140.3214 0002992  45.1706 314.9529 15.08832650 47782,6917.903,95.438,541.8380000000002,537.698,0.0
51755.0,STARLINK-3460,PAYLOAD,2022-12-30 12:44:08,15.08835741,0.000304,53.2151,139.7274,44.2022,315.9212,0.00015394,2.162e-05,0.0,0 STARLINK-3460,1 51755U 22016AT  22364.53065322  .00002162  00000-0  15394-3 0  9993,2 51755  53.2151 139.7274 0003040  44.2022 315.9212 15.08835741 48913,6917.893,95.438,541.861,537.655,0.0
51755.0,STARLINK-3460,PAYLOAD,2022-12-30 19:05:40,15.08844922,0.0003067,53.2156,138.5386,39.9187,320.203,0.0002373,3.491e-05,0.0,0 STARLINK-3460,1 51755U 22016AT  22364.79560860  .00003491  00000-0  23730-3 0  9997,2 51755  53.2156 138.5386 0003067  39.9187 320.2030 15.08844922 48953,6917.865,95.437,541.852,537.609,0.0
51755.0,STARLINK-3460,PAYLOAD,2022-12-31 09:24:08,15.08849745,0.0003125,53.2157,135.8623,40.7655,319.357,0.00034501,5.208e-05,0.0,0 STARLINK-3460,1 51755U 22016AT  22365.39176287  .00005208  00000-0  34501-3 0  9996,2 51755  53.2157 135.8623 0003125  40.7655 319.3570 15.08849745 47936,6917.851,95.437,541.877,537.554,0.0
